{
  "type": "FeatureCollection",
  "features": [
    {
      "type": "Feature",
      "properties": {
        "norad_id": 66908,
        "name": "1998-067XU",
        "group": "stations",
        "lat": 47.36274737411585,
        "lon": -79.43354857525338,
        "alt_km": 407.981782584181,
        "timestamp": "2025-12-09T04:51:46.308199+00:00",
        "meta_object_name": "1998-067XU",
        "meta_object_id": "1998-067XU",
        "meta_epoch": "2025-12-08T19:06:37.819584",
        "meta_mean_motion": 15.50799834,
        "meta_eccentricity": 0.0005158,
        "meta_inclination": 51.6297,
        "meta_ra_of_asc_node": 161.9574,
        "meta_arg_of_pericenter": 203.0343,
        "meta_mean_anomaly": 157.0415,
        "meta_ephemeris_type": 0,
        "meta_classification_type": "U",
        "meta_norad_cat_id": 66908,
        "meta_element_set_no": 999,
        "meta_rev_at_epoch": 100,
        "meta_bstar": 0.0012102,
        "meta_mean_motion_dot": 0.00071266,
        "meta_mean_motion_ddot": 0,
        "tle_line1": "1 66908U 98067XU  25342.79627106  .00071266  00000+0  12102-2 0  9992",
        "tle_line2": "2 66908  51.6297 161.9574 0005158 203.0343 157.0415 15.50799834  1003"
      },
      "geometry": {
        "type": "Point",
        "coordinates": [
          -79.43354857525338,
          47.36274737411585
        ]
      }
    },
    {
      "type": "Feature",
      "properties": {
        "norad_id": 66909,
        "name": "SILVERSAT",
        "group": "stations",
        "lat": 47.034500719903136,
        "lon": -78.34695856826389,
        "alt_km": 407.79564819393,
        "timestamp": "2025-12-09T04:51:46.308211+00:00",
        "meta_object_name": "SILVERSAT",
        "meta_object_id": "1998-067XV",
        "meta_epoch": "2025-12-08T17:33:40.093056",
        "meta_mean_motion": 15.50878297,
        "meta_eccentricity": 0.0005012,
        "meta_inclination": 51.6297,
        "meta_ra_of_asc_node": 162.2763,
        "meta_arg_of_pericenter": 204.4469,
        "meta_mean_anomaly": 155.6283,
        "meta_ephemeris_type": 0,
        "meta_classification_type": "U",
        "meta_norad_cat_id": 66909,
        "meta_element_set_no": 999,
        "meta_rev_at_epoch": 99,
        "meta_bstar": 0.0013404,
        "meta_mean_motion_dot": 0.00079284,
        "meta_mean_motion_ddot": 0,
        "tle_line1": "1 66909U 98067XV  25342.73171404  .00079284  00000+0  13404-2 0  9996",
        "tle_line2": "2 66909  51.6297 162.2763 0005012 204.4469 155.6283 15.50878297   996"
      },
      "geometry": {
        "type": "Point",
        "coordinates": [
          -78.34695856826389,
          47.034500719903136
        ]
      }
    },
    {
      "type": "Feature",
      "properties": {
        "norad_id": 66910,
        "name": "1998-067XW",
        "group": "stations",
        "lat": 44.16338648816414,
        "lon": -70.38381879906984,
        "alt_km": 406.19411564514394,
        "timestamp": "2025-12-09T04:51:46.308221+00:00",
        "meta_object_name": "1998-067XW",
        "meta_object_id": "1998-067XW",
        "meta_epoch": "2025-12-08T19:04:55.224768",
        "meta_mean_motion": 15.51091956,
        "meta_eccentricity": 0.0005915,
        "meta_inclination": 51.6296,
        "meta_ra_of_asc_node": 161.9498,
        "meta_arg_of_pericenter": 189.2693,
        "meta_mean_anomaly": 170.8188,
        "meta_ephemeris_type": 0,
        "meta_classification_type": "U",
        "meta_norad_cat_id": 66910,
        "meta_element_set_no": 999,
        "meta_rev_at_epoch": 100,
        "meta_bstar": 0.0012166,
        "meta_mean_motion_dot": 0.00072421,
        "meta_mean_motion_ddot": 0,
        "tle_line1": "1 66910U 98067XW  25342.79508362  .00072421  00000+0  12166-2 0  9991",
        "tle_line2": "2 66910  51.6296 161.9498 0005915 189.2693 170.8188 15.51091956  1005"
      },
      "geometry": {
        "type": "Point",
        "coordinates": [
          -70.38381879906984,
          44.16338648816414
        ]
      }
    },
    {
      "type": "Feature",
      "properties": {
        "norad_id": 66911,
        "name": "1998-067XX",
        "group": "stations",
        "lat": 43.392472210601326,
        "lon": -68.5864571941832,
        "alt_km": 405.87616711559804,
        "timestamp": "2025-12-09T04:51:46.308231+00:00",
        "meta_object_name": "1998-067XX",
        "meta_object_id": "1998-067XX",
        "meta_epoch": "2025-12-08T19:04:34.995936",
        "meta_mean_motion": 15.51222448,
        "meta_eccentricity": 0.0005755,
        "meta_inclination": 51.6294,
        "meta_ra_of_asc_node": 161.9483,
        "meta_arg_of_pericenter": 189.9158,
        "meta_mean_anomaly": 170.1718,
        "meta_ephemeris_type": 0,
        "meta_classification_type": "U",
        "meta_norad_cat_id": 66911,
        "meta_element_set_no": 999,
        "meta_rev_at_epoch": 99,
        "meta_bstar": 0.0014185,
        "meta_mean_motion_dot": 0.00085043,
        "meta_mean_motion_ddot": 0,
        "tle_line1": "1 66911U 98067XX  25342.79484949  .00085043  00000+0  14185-2 0  9993",
        "tle_line2": "2 66911  51.6294 161.9483 0005755 189.9158 170.1718 15.51222448   994"
      },
      "geometry": {
        "type": "Point",
        "coordinates": [
          -68.5864571941832,
          43.392472210601326
        ]
      }
    },
    {
      "type": "Feature",
      "properties": {
        "norad_id": 66912,
        "name": "1998-067XY",
        "group": "stations",
        "lat": 48.596145709160936,
        "lon": -84.02314689723904,
        "alt_km": 408.62100399052815,
        "timestamp": "2025-12-09T04:51:46.308240+00:00",
        "meta_object_name": "1998-067XY",
        "meta_object_id": "1998-067XY",
        "meta_epoch": "2025-12-08T19:07:24.189600",
        "meta_mean_motion": 15.50590013,
        "meta_eccentricity": 0.0005041,
        "meta_inclination": 51.6301,
        "meta_ra_of_asc_node": 161.961,
        "meta_arg_of_pericenter": 202.8515,
        "meta_mean_anomaly": 157.2251,
        "meta_ephemeris_type": 0,
        "meta_classification_type": "U",
        "meta_norad_cat_id": 66912,
        "meta_element_set_no": 999,
        "meta_rev_at_epoch": 99,
        "meta_bstar": 0.0010397,
        "meta_mean_motion_dot": 0.00060617,
        "meta_mean_motion_ddot": 0,
        "tle_line1": "1 66912U 98067XY  25342.79680775  .00060617  00000+0  10397-2 0  9990",
        "tle_line2": "2 66912  51.6301 161.9610 0005041 202.8515 157.2251 15.50590013   999"
      },
      "geometry": {
        "type": "Point",
        "coordinates": [
          -84.02314689723904,
          48.596145709160936
        ]
      }
    }
  ]
}